0 CORVUS BC1
1 42847U 17042Y   19229.18351786  .00000268  00000-0  31676-4 0  9994
2 42847  97.5583 120.9090 0008359 207.9114 152.1659 14.92089746113884
0 OBJECT Z
1 42848U 17042Z   19229.17814237  .00000275  00000-0  32110-4 0  9991
2 42848  97.5590 121.2464 0007284 204.8860 155.2009 14.92368686113912
0 OBJECT Z
1 42848U 17042Z   19229.64748731  .00000289  00000-0  33511-4 0  9999
2 42848  97.5588 121.6969 0007325 203.2517 156.8372 14.92368895113980
0 OBJECT AA
1 42849U 17042AA  19229.64166028  .00000246  00000-0  29290-4 0  9995
2 42849  97.5589 121.7063 0007243 205.6851 154.4010 14.92380017113943
0 OBJECT AA
1 42849U 17042AA  19229.50756271  .00000237  00000-0  28346-4 0  9996
2 42849  97.5590 121.5775 0007233 206.1246 153.9610 14.92379943113920
0 OBJECT AA
1 42849U 17042AA  19229.17231861  .00000209  00000-0  25697-4 0  9997
2 42849  97.5591 121.2557 0007205 207.3313 152.7528 14.92379868113878
0 FLOCK 2K 03
1 42850U 17042AB  19229.56267815  .00001860  00000-0  49502-4 0  9995
2 42850  96.9321 109.0351 0010550  17.7493 342.4120 15.39348757117177
0 FLOCK 2K 03
1 42850U 17042AB  19228.84762051 +.00001886 +00000-0 +50173-4 0  9991
2 42850 096.9322 108.3582 0010621 020.1410 340.0254 15.39346113117066
0 FLOCK 2K 04
1 42851U 17042AC  19228.84921504 +.00001864 +00000-0 +48785-4 0  9994
2 42851 096.9315 108.6449 0010447 022.0011 338.1682 15.39868611117085
0 FLOCK 2K 01
1 42852U 17042AD  19228.90966022 +.00001831 +00000-0 +48558-4 0  9998
2 42852 096.9319 108.4092 0010200 020.0955 340.0692 15.39479925117072
0 FLOCK 2K 01
1 42852U 17042AD  19229.55965610  .00001858  00000-0  49240-4 0  9990
2 42852  96.9318 109.0246 0010128  17.9079 342.2523 15.39482541117176
0 FLOCK 2K 02
1 42853U 17042AE  19229.78995312  .00002262  00000-0  63365-4 0  9992
2 42853  96.9319 107.2578 0011060  21.7997 338.3717 15.37527839117061
0 FLOCK 2K 02
1 42853U 17042AE  19228.68355586 +.00002224 +00000-0 +62348-4 0  9991
2 42853 096.9322 106.2135 0011190 025.4187 334.7607 15.37522684116890
0 FLOCK 2K 47
1 42854U 17042AF  19228.84499119 +.00001272 +00000-0 +34509-4 0  9991
2 42854 096.9322 108.3556 0010056 019.2053 340.9570 15.39316085117060
0 FLOCK 2K 47
1 42854U 17042AF  19229.56006291  .00001276  00000-0  34598-4 0  9998
2 42854  96.9320 109.0325 0009977  16.7806 343.3769 15.39317983117175
0 FLOCK 2K 48
1 42855U 17042AG  19229.48199161  .00002822  00000-0  73421-4 0  9995
2 42855  96.9315 109.0047 0009745  17.5718 342.5864 15.39642161117160
0 FLOCK 2K 48
1 42855U 17042AG  19228.63708392 +.00002853 +00000-0 +74221-4 0  9996
2 42855 096.9318 108.2046 0009857 020.3376 339.8262 15.39637482117036
0 FLOCK 2K 45
1 42856U 17042AH  19228.90606596 +.00001336 +00000-0 +36131-4 0  9993
2 42856 096.9318 108.4166 0009934 018.2318 341.9283 15.39316322117078
0 FLOCK 2K 45
1 42856U 17042AH  19229.55613098  .00001364  00000-0  36852-4 0  9991
2 42856  96.9316 109.0319 0009860  16.0200 344.1357 15.39318304117177
0 FLOCK 2K 46
1 42858U 17042AK  19228.89466552 +.00002541 +00000-0 +65280-4 0  9995
2 42858 096.9319 108.6245 0009817 017.2778 342.8801 15.40123519117083
0 FLOCK 2K 23
1 42859U 17042AL  19228.70402465 +.00001902 +00000-0 +50565-4 0  9999
2 42859 096.9327 108.2937 0010211 019.3953 340.7681 15.39355103117048
0 FLOCK 2K 23
1 42859U 17042AL  19229.22406346  .00001888  00000-0  50198-4 0  9994
2 42859  96.9326 108.7858 0010170  17.4225 342.7369 15.39357009117120
0 FLOCK 2K 21
1 42860U 17042AM  19228.90409323 +.00001328 +00000-0 +35933-4 0  9997
2 42860 096.9327 108.4628 0010159 018.7265 341.4353 15.39313545117070
0 FLOCK 2K 21
1 42860U 17042AM  19229.55415956  .00001335  00000-0  36116-4 0  9990
2 42860  96.9325 109.0781 0010079  16.5752 343.5822 15.39315347117170
0 FLOCK 2K 07
1 42862U 17042AP  19229.42120579  .00001492  00000-0  40098-4 0  9990
2 42862  96.9329 108.9934 0010361  16.3428 343.8151 15.39332693117166
0 FLOCK 2K 07
1 42862U 17042AP  19228.83615272 +.00001536 +00000-0 +41240-4 0  9992
2 42862 096.9330 108.4396 0010436 018.2512 341.9107 15.39331130117078
0 FLOCK 2K 08
1 42863U 17042AQ  19228.70202365 +.00001219 +00000-0 +33145-4 0  9997
2 42863 096.9322 108.2728 0010451 019.9848 340.1806 15.39308928117047
0 FLOCK 2K 08
1 42863U 17042AQ  19229.48210517  .00001215  00000-0  33043-4 0  9994
2 42863  96.9320 109.0111 0010350  17.4484 342.7116 15.39310982117165
0 FLOCK 2K 05
1 42864U 17042AR  19229.42006562  .00003117  00000-0  77966-4 0  9997
2 42864  96.9317 109.4059 0009728  16.5110 343.6453 15.40769502117184
0 FLOCK 2K 05
1 42864U 17042AR  19228.90050269 +.00003180 +00000-0 +79517-4 0  9996
2 42864 096.9319 108.9131 0009804 018.2338 341.9259 15.40766528117109
0 FLOCK 2K 40
1 42865U 17042AS  19228.89496634 +.00001252 +00000-0 +33987-4 0  9994
2 42865 096.9329 108.5096 0010417 019.0476 341.1159 15.39316293117076
0 FLOCK 2K 40
1 42865U 17042AS  19229.21999896  .00001257  00000-0  34104-4 0  9996
2 42865  96.9328 108.8173 0010372  17.9832 342.1780 15.39317194117125
0 FLOCK 2K 39
1 42866U 17042AT  19229.41252376  .00001327  00000-0  35890-4 0  9995
2 42866  96.9325 108.9771 0010332  16.5311 343.6270 15.39331512117154
0 FLOCK 2K 37
1 42867U 17042AU  19229.15127899  .00001960  00000-0  52093-4 0  9995
2 42867  96.9322 108.7383 0010510  18.0168 342.1449 15.39334339117112
0 FLOCK 2K 37
1 42867U 17042AU  19228.63123242 +.00001928 +00000-0 +51276-4 0  9991
2 42867 096.9323 108.2460 0010557 019.7896 340.3758 15.39331985117039
0 FLOCK 2K 38
1 42868U 17042AV  19228.48166482 +.00003506 +00000-0 +90424-4 0  9990
2 42868 096.9323 108.1387 0010304 018.1375 342.0237 15.39748337117014
0 FLOCK 2K 38
1 42868U 17042AV  19229.19653546  .00003222  00000-0  83244-4 0  9998
2 42868  96.9321 108.8158 0010211  15.8372 344.3193 15.39752373117126
0 FLOCK 2K 31
1 42869U 17042AW  19229.14585227  .00002041  00000-0  54173-4 0  9991
2 42869  96.9320 108.7194 0010342  14.1933 345.9602 15.39318740117112
0 FLOCK 2K 31
1 42869U 17042AW  19228.43078114 +.00001981 +00000-0 +52649-4 0  9992
2 42869 096.9322 108.0425 0010475 016.3628 343.7955 15.39314814117009
0 FLOCK 2K 32
1 42870U 17042AX  19228.62309687 +.00001498 +00000-0 +40278-4 0  9995
2 42870 096.9321 108.2199 0010387 016.7095 343.4492 15.39323927117035
0 FLOCK 2K 32
1 42870U 17042AX  19229.53318288  .00001493  00000-0  40156-4 0  9993
2 42870  96.9320 109.0813 0010287  13.5569 346.5952 15.39326847117170
0 FLOCK 2K 29
1 42871U 17042AY  19228.68642590 +.00001917 +00000-0 +50993-4 0  9996
2 42871 096.9324 108.3097 0010473 015.7720 344.3851 15.39323400117043
0 FLOCK 2K 44
1 42873U 17042BA  19228.74637802 +.00001923 +00000-0 +51099-4 0  9990
2 42873 096.9319 108.3573 0010884 004.9240 355.2112 15.39346564117059
0 FLOCK 2K 43
1 42874U 17042BB  19229.45745917  .00000826  00000-0  25633-4 0  9993
2 42874  96.9318 106.7617 0012852  13.6070 346.5519 15.35940332117003
0 FLOCK 2K 41
1 42875U 17042BC  19228.86163424 +.00001444 +00000-0 +38823-4 0  9997
2 42875 096.9327 108.5342 0011412 006.4849 353.6543 15.39366827117072
0 FLOCK 2K 41
1 42875U 17042BC  19229.18665626  .00001445  00000-0  38854-4 0  9999
2 42875  96.9327 108.8419 0011375   5.3451 354.7915 15.39367762117125
0 FLOCK 2K 36
1 42876U 17042BD  19228.91229498 +.00002971 +00000-0 +75499-4 0  9994
2 42876 096.9318 108.6166 0011082 007.2740 352.8666 15.40317368117086
0 FLOCK 2K 36
1 42876U 17042BD  19229.56193748  .00002976  00000-0  75597-4 0  9998
2 42876  96.9315 109.2325 0011000   5.0430 355.0927 15.40321141117189
0 FLOCK 2K 35
1 42877U 17042BE  19228.67894494 +.00002025 +00000-0 +53737-4 0  9993
2 42877 096.9328 108.3423 0011307 006.6420 353.4975 15.39336019117047
0 FLOCK 2K 34
1 42878U 17042BF  19228.85668415 +.00002908 +00000-0 +75410-4 0  9998
2 42878 096.9322 108.5250 0010951 007.9203 352.2215 15.39711268117079
0 FLOCK 2K 34
1 42878U 17042BF  19229.44159262  .00002832  00000-0  73475-4 0  9994
2 42878  96.9320 109.0790 0010863   5.9426 354.1948 15.39714194117164
0 FLOCK 2K 33
1 42879U 17042BG  19228.70813307 +.00003812 +00000-0 +90999-4 0  9999
2 42879 096.9318 109.2838 0010412 005.1469 354.9884 15.42055893117116
0 FLOCK 2K 27
1 42882U 17042BK  19228.89008195 +.00003539 +00000-0 +89015-4 0  9997
2 42882 096.9313 108.6499 0010999 007.7343 352.4072 15.40504518117089
0 FLOCK 2K 26
1 42883U 17042BL  19228.63821198 +.00003041 +00000-0 +77840-4 0  9997
2 42883 096.9318 108.4992 0011313 006.4005 353.7384 15.40067321117056
0 FLOCK 2K 26
1 42883U 17042BL  19229.22298504  .00002943  00000-0  75398-4 0  9998
2 42883  96.9317 109.0533 0011228   4.3609 355.7734 15.40070615117146
0 FLOCK 2K 25
1 42884U 17042BM  19229.19633299  .00002011  00000-0  53380-4 0  9992
2 42884  96.9322 108.8107 0011272   5.4136 354.7231 15.39332058117122
0 FLOCK 2K 25
1 42884U 17042BM  19228.80629797 +.00001872 +00000-0 +49817-4 0  9991
2 42884 096.9324 108.4414 0011375 006.5104 353.6289 15.39329328117062
0 FLOCK 2K 20
1 42885U 17042BN  19228.89549361 +.00002923 +00000-0 +75375-4 0  9995
2 42885 096.9324 108.6358 0011416 005.5686 354.5686 15.39873683117083
0 FLOCK 2K 19
1 42886U 17042BP  19228.80378401 +.00002024 +00000-0 +53718-4 0  9991
2 42886 096.9328 108.4799 0011769 006.4025 353.7370 15.39330548117060
0 FLOCK 2K 19
1 42886U 17042BP  19229.19381894  .00002170  00000-0  57437-4 0  9998
2 42886  96.9327 108.8491 0011714   5.1229 355.0136 15.39332928117120
0 FLOCK 2K 18
1 42887U 17042BQ  19229.18459851  .00001926  00000-0  51144-4 0  9994
2 42887  96.9326 108.8513 0011791   4.0830 356.0511 15.39358120117126
0 FLOCK 2K 18
1 42887U 17042BQ  19228.85957467 +.00001902 +00000-0 +50533-4 0  9998
2 42887 096.9327 108.5437 0011829 005.2304 354.9064 15.39356639117077
